{
  "satellite_1541": {
    "tle": [
      "1 00058U 59005  A 59269.3803315 .04655228 +00000-0 +00000-0 0  9998",
      "2 00058 029.9979 161.4819 0140209 012.7649 347.4143 16.48843120006800"
    ],
    "country": "CN",
    "role": "LEO",
    "networkSystem": "",
    "type": "",
    "networkState": "",
    "toSatellitePolyLines": [],
    "toRadarPolyLines": []
  },
  "satellite_1542": {
    "tle": [
      "1 00059U 59005  A 59269.3817203 .04655228 +00000-0 +00000-0 0  9998",
      "2 00059 029.9981 161.4819 0140209 012.7649 347.4143 16.48843120006800"
    ],
    "country": "CN",
    "role": "LEO",
    "networkSystem": "",
    "type": "",
    "networkState": "",
    "toSatellitePolyLines": [],
    "toRadarPolyLines": []
  },
  "satellite_1543": {
    "tle": [
      "1 00060U 59005  A 59269.3831091 .04655228 +00000-0 +00000-0 0  9998",
      "2 00060 029.9983 161.4819 0140209 012.7649 347.4143 16.48843120006800"
    ],
    "country": "CN",
    "role": "LEO",
    "networkSystem": "",
    "type": "",
    "networkState": "",
    "toSatellitePolyLines": [],
    "toRadarPolyLines": []
  },
  "satellite_1544": {
    "tle": [
      "1 00061U 59005  A 59269.3844979 .04655228 +00000-0 +00000-0 0  9998",
      "2 00061 029.9985 161.4819 0140209 012.7649 347.4143 16.48843120006800"
    ],
    "country": "CN",
    "role": "LEO",
    "networkSystem": "",
    "type": "",
    "networkState": "",
    "toSatellitePolyLines": [],
    "toRadarPolyLines": []
  },
  "satellite_1545": {
    "tle": [
      "1 00062U 59005  A 59269.3858867 .04655228 +00000-0 +00000-0 0  9998",
      "2 00062 029.9987 161.4819 0140209 012.7649 347.4143 16.48843120006800"
    ],
    "country": "CN",
    "role": "LEO",
    "networkSystem": "",
    "type": "",
    "networkState": "",
    "toSatellitePolyLines": [],
    "toRadarPolyLines": []
  },
  "satellite_1546": {
    "tle": [
      "1 00063U 59005  A 59269.3872755 .04655228 +00000-0 +00000-0 0  9998",
      "2 00063 029.9989 161.4819 0140209 012.7649 347.4143 16.48843120006800"
    ],
    "country": "CN",
    "role": "LEO",
    "networkSystem": "",
    "type": "",
    "networkState": "",
    "toSatellitePolyLines": [],
    "toRadarPolyLines": []
  },
  "satellite_1547": {
    "tle": [
      "1 00064U 59005  A 59269.3886643 .04655228 +00000-0 +00000-0 0  9998",
      "2 00064 029.9991 161.4819 0140209 012.7649 347.4143 16.48843120006800"
    ],
    "country": "CN",
    "role": "LEO",
    "networkSystem": "",
    "type": "",
    "networkState": "",
    "toSatellitePolyLines": [],
    "toRadarPolyLines": []
  },
  "satellite_1548": {
    "tle": [
      "1 00065U 59005  A 59269.3900531 .04655228 +00000-0 +00000-0 0  9998",
      "2 00065 029.9993 161.4819 0140209 012.7649 347.4143 16.48843120006800"
    ],
    "country": "CN",
    "role": "LEO",
    "networkSystem": "",
    "type": "",
    "networkState": "",
    "toSatellitePolyLines": [],
    "toRadarPolyLines": []
  },
  "satellite_1549": {
    "tle": [
      "1 00066U 59005  A 59269.3914419 .04655228 +00000-0 +00000-0 0  9998",
      "2 00066 029.9995 161.4819 0140209 012.7649 347.4143 16.48843120006800"
    ],
    "country": "CN",
    "role": "LEO",
    "networkSystem": "",
    "type": "",
    "networkState": "",
    "toSatellitePolyLines": [],
    "toRadarPolyLines": []
  },
  "satellite_1550": {
    "tle": [
      "1 00067U 59005  A 59269.3928307 .04655228 +00000-0 +00000-0 0  9998",
      "2 00067 029.9995 161.4819 0140209 012.7649 347.4143 16.48843120006800"
    ],
    "country": "CN",
    "role": "LEO",
    "networkSystem": "",
    "type": "",
    "networkState": "",
    "toSatellitePolyLines": [],
    "toRadarPolyLines": []
  },
  "satellite_1601": {
    "tle": [
      "1 00018U 59005  A 59269.32477950  .04655228 +00000-0 +00000-0 0  9998",
      "2 00018 029.9899 151.4819 0140209 012.7649 347.4143 16.48843120006800"
    ],
    "country": "CN",
    "role": "LEO",
    "networkSystem": "",
    "type": "",
    "networkState": "",
    "toSatellitePolyLines": [],
    "toRadarPolyLines": []
  },
  "satellite_1602": {
    "tle": [
      "1 00019U 59005  A 59269.3261683 .04655228 +00000-0 +00000-0 0  9998",
      "2 00019 029.9901 151.4819 0140209 012.7649 347.4143 16.48843120006800"
    ],
    "country": "CN",
    "role": "LEO",
    "networkSystem": "",
    "type": "",
    "networkState": "",
    "toSatellitePolyLines": [],
    "toRadarPolyLines": []
  },
  "satellite_1603": {
    "tle": [
      "1 00020U 59005  A 59269.3275571 .04655228 +00000-0 +00000-0 0  9998",
      "2 00020 029.9903 151.4819 0140209 012.7649 347.4143 16.48843120006800"
    ],
    "country": "CN",
    "role": "LEO",
    "networkSystem": "",
    "type": "",
    "networkState": "",
    "toSatellitePolyLines": [],
    "toRadarPolyLines": []
  },
  "satellite_1604": {
    "tle": [
      "1 00021U 59005  A 59269.3289459 .04655228 +00000-0 +00000-0 0  9998",
      "2 00021 029.9905 151.4819 0140209 012.7649 347.4143 16.48843120006800"
    ],
    "country": "CN",
    "role": "LEO",
    "networkSystem": "",
    "type": "",
    "networkState": "",
    "toSatellitePolyLines": [],
    "toRadarPolyLines": []
  },
  "satellite_1605": {
    "tle": [
      "1 00022U 59005  A 59269.3303347 .04655228 +00000-0 +00000-0 0  9998",
      "2 00022 029.9907 151.4819 0140209 012.7649 347.4143 16.48843120006800"
    ],
    "country": "CN",
    "role": "LEO",
    "networkSystem": "",
    "type": "",
    "networkState": "",
    "toSatellitePolyLines": [],
    "toRadarPolyLines": []
  },
  "satellite_1606": {
    "tle": [
      "1 00023U 59005  A 59269.3317235 .04655228 +00000-0 +00000-0 0  9998",
      "2 00023 029.9909 151.4819 0140209 012.7649 347.4143 16.48843120006800"
    ],
    "country": "CN",
    "role": "LEO",
    "networkSystem": "",
    "type": "",
    "networkState": "",
    "toSatellitePolyLines": [],
    "toRadarPolyLines": []
  },
  "satellite_1607": {
    "tle": [
      "1 00024U 59005  A 59269.3331123 .04655228 +00000-0 +00000-0 0  9998",
      "2 00024 029.9911 151.4819 0140209 012.7649 347.4143 16.48843120006800"
    ],
    "country": "CN",
    "role": "LEO",
    "networkSystem": "",
    "type": "",
    "networkState": "",
    "toSatellitePolyLines": [],
    "toRadarPolyLines": []
  },
  "satellite_1608": {
    "tle": [
      "1 00025U 59005  A 59269.3345011 .04655228 +00000-0 +00000-0 0  9998",
      "2 00025 029.9913 151.4819 0140209 012.7649 347.4143 16.48843120006800"
    ],
    "country": "CN",
    "role": "LEO",
    "networkSystem": "",
    "type": "",
    "networkState": "",
    "toSatellitePolyLines": [],
    "toRadarPolyLines": []
  },
  "satellite_1609": {
    "tle": [
      "1 00026U 59005  A 59269.3358899 .04655228 +00000-0 +00000-0 0  9998",
      "2 00026 029.9915 151.4819 0140209 012.7649 347.4143 16.48843120006800"
    ],
    "country": "CN",
    "role": "LEO",
    "networkSystem": "",
    "type": "",
    "networkState": "",
    "toSatellitePolyLines": [],
    "toRadarPolyLines": []
  },
  "satellite_1610": {
    "tle": [
      "1 00027U 59005  A 59269.3372787 .04655228 +00000-0 +00000-0 0  9998",
      "2 00027 029.9917 151.4819 0140209 012.7649 347.4143 16.48843120006800"
    ],
    "country": "CN",
    "role": "LEO",
    "networkSystem": "",
    "type": "",
    "networkState": "",
    "toSatellitePolyLines": [],
    "toRadarPolyLines": []
  },
  "satellite_1611": {
    "tle": [
      "1 00028U 59005  A 59269.3386675 .04655228 +00000-0 +00000-0 0  9998",
      "2 00028 029.9919 151.4819 0140209 012.7649 347.4143 16.48843120006800"
    ],
    "country": "CN",
    "role": "LEO",
    "networkSystem": "",
    "type": "",
    "networkState": "",
    "toSatellitePolyLines": [],
    "toRadarPolyLines": []
  },
  "satellite_1612": {
    "tle": [
      "1 00029U 59005  A 59269.3400563 .04655228 +00000-0 +00000-0 0  9998",
      "2 00029 029.9921 151.4819 0140209 012.7649 347.4143 16.48843120006800"
    ],
    "country": "CN",
    "role": "LEO",
    "networkSystem": "",
    "type": "",
    "networkState": "",
    "toSatellitePolyLines": [],
    "toRadarPolyLines": []
  },
  "satellite_1613": {
    "tle": [
      "1 00030U 59005  A 59269.3414451 .04655228 +00000-0 +00000-0 0  9998",
      "2 00030 029.9923 151.4819 0140209 012.7649 347.4143 16.48843120006800"
    ],
    "country": "CN",
    "role": "LEO",
    "networkSystem": "",
    "type": "",
    "networkState": "",
    "toSatellitePolyLines": [],
    "toRadarPolyLines": []
  },
  "satellite_1614": {
    "tle": [
      "1 00031U 59005  A 59269.3428339 .04655228 +00000-0 +00000-0 0  9998",
      "2 00031 029.9925 151.4819 0140209 012.7649 347.4143 16.48843120006800"
    ],
    "country": "CN",
    "role": "LEO",
    "networkSystem": "",
    "type": "",
    "networkState": "",
    "toSatellitePolyLines": [],
    "toRadarPolyLines": []
  },
  "satellite_1615": {
    "tle": [
      "1 00032U 59005  A 59269.3442227 .04655228 +00000-0 +00000-0 0  9998",
      "2 00032 029.9927 151.4819 0140209 012.7649 347.4143 16.48843120006800"
    ],
    "country": "CN",
    "role": "LEO",
    "networkSystem": "",
    "type": "",
    "networkState": "",
    "toSatellitePolyLines": [],
    "toRadarPolyLines": []
  },
  "satellite_1616": {
    "tle": [
      "1 00033U 59005  A 59269.3456115 .04655228 +00000-0 +00000-0 0  9998",
      "2 00033 029.9929 151.4819 0140209 012.7649 347.4143 16.48843120006800"
    ],
    "country": "CN",
    "role": "LEO",
    "networkSystem": "",
    "type": "",
    "networkState": "",
    "toSatellitePolyLines": [],
    "toRadarPolyLines": []
  },
  "satellite_1617": {
    "tle": [
      "1 00034U 59005  A 59269.3470003 .04655228 +00000-0 +00000-0 0  9998",
      "2 00034 029.9931 151.4819 0140209 012.7649 347.4143 16.48843120006800"
    ],
    "country": "CN",
    "role": "LEO",
    "networkSystem": "",
    "type": "",
    "networkState": "",
    "toSatellitePolyLines": [],
    "toRadarPolyLines": []
  }
}